{
  "type": "FeatureCollection",
  "features": [
    {
      "type": "Feature",
      "properties": {
        "norad_id": 31773,
        "name": "FENGYUN 1C DEB",
        "group": "fengyun-1c-debris",
        "lat": 62.32964732992082,
        "lon": -41.42355944411554,
        "alt_km": 659.5774260883954,
        "timestamp": "2025-12-11T07:02:24.014421+00:00",
        "meta_object_name": "FENGYUN 1C DEB",
        "meta_object_id": "1999-025CFY",
        "meta_epoch": "2025-12-08T05:22:19.576416",
        "meta_mean_motion": 14.72657344,
        "meta_eccentricity": 0.00387845,
        "meta_inclination": 98.9512,
        "meta_ra_of_asc_node": 332.6908,
        "meta_arg_of_pericenter": 192.9231,
        "meta_mean_anomaly": 167.0984,
        "meta_ephemeris_type": 0,
        "meta_classification_type": "U",
        "meta_norad_cat_id": 31773,
        "meta_element_set_no": 999,
        "meta_rev_at_epoch": 65108,
        "meta_bstar": 0.0024881377,
        "meta_mean_motion_dot": 0.00016017,
        "meta_mean_motion_ddot": 0,
        "tle_line1": "1 31773U 99025CFY 25342.22383769  .00016017  00000+0  24881-2 0  9991",
        "tle_line2": "2 31773  98.9512 332.6908 0038784 192.9231 167.0984 14.72657344651083"
      },
      "geometry": {
        "type": "Point",
        "coordinates": [
          -41.42355944411554,
          62.32964732992082
        ]
      }
    },
    {
      "type": "Feature",
      "properties": {
        "norad_id": 31776,
        "name": "FENGYUN 1C DEB",
        "group": "fengyun-1c-debris",
        "lat": 60.61620842189854,
        "lon": 28.513539499422183,
        "alt_km": 819.6384152642222,
        "timestamp": "2025-12-11T07:02:24.014431+00:00",
        "meta_object_name": "FENGYUN 1C DEB",
        "meta_object_id": "1999-025CGB",
        "meta_epoch": "2025-12-10T10:30:15.554592",
        "meta_mean_motion": 14.18530208,
        "meta_eccentricity": 0.00545226,
        "meta_inclination": 99.0756,
        "meta_ra_of_asc_node": 44.129,
        "meta_arg_of_pericenter": 341.0208,
        "meta_mean_anomaly": 33.1923,
        "meta_ephemeris_type": 0,
        "meta_classification_type": "U",
        "meta_norad_cat_id": 31776,
        "meta_element_set_no": 999,
        "meta_rev_at_epoch": 94848,
        "meta_bstar": 0.0019236943,
        "meta_mean_motion_dot": 3.993e-05,
        "meta_mean_motion_ddot": 0,
        "tle_line1": "1 31776U 99025CGB 25344.43768003  .00003993  00000+0  19237-2 0  9995",
        "tle_line2": "2 31776  99.0756  44.1290 0054522 341.0208  33.1923 14.18530208948484"
      },
      "geometry": {
        "type": "Point",
        "coordinates": [
          28.513539499422183,
          60.61620842189854
        ]
      }
    },
    {
      "type": "Feature",
      "properties": {
        "norad_id": 31779,
        "name": "FENGYUN 1C DEB",
        "group": "fengyun-1c-debris",
        "lat": -63.80689527609267,
        "lon": 65.67975199038315,
        "alt_km": 677.9398018190859,
        "timestamp": "2025-12-11T07:02:24.014441+00:00",
        "meta_object_name": "FENGYUN 1C DEB",
        "meta_object_id": "1999-025CGE",
        "meta_epoch": "2025-12-09T12:16:05.170944",
        "meta_mean_motion": 14.41586265,
        "meta_eccentricity": 0.021314,
        "meta_inclination": 99.298,
        "meta_ra_of_asc_node": 263.1933,
        "meta_arg_of_pericenter": 192.3913,
        "meta_mean_anomaly": 167.1985,
        "meta_ephemeris_type": 0,
        "meta_classification_type": "U",
        "meta_norad_cat_id": 31779,
        "meta_element_set_no": 999,
        "meta_rev_at_epoch": 96963,
        "meta_bstar": 0.00045665,
        "meta_mean_motion_dot": 1.887e-05,
        "meta_mean_motion_ddot": 0,
        "tle_line1": "1 31779U 99025CGE 25343.51117096  .00001887  00000+0  45665-3 0  9991",
        "tle_line2": "2 31779  99.2980 263.1933 0213140 192.3913 167.1985 14.41586265969634"
      },
      "geometry": {
        "type": "Point",
        "coordinates": [
          65.67975199038315,
          -63.80689527609267
        ]
      }
    },
    {
      "type": "Feature",
      "properties": {
        "norad_id": 31780,
        "name": "FENGYUN 1C DEB",
        "group": "fengyun-1c-debris",
        "lat": 57.537632335167636,
        "lon": 122.82305623926958,
        "alt_km": 550.755252547784,
        "timestamp": "2025-12-11T07:02:24.014451+00:00",
        "meta_object_name": "FENGYUN 1C DEB",
        "meta_object_id": "1999-025CGF",
        "meta_epoch": "2025-12-10T20:58:32.443104",
        "meta_mean_motion": 14.69527931,
        "meta_eccentricity": 0.01508957,
        "meta_inclination": 99.2859,
        "meta_ra_of_asc_node": 137.2501,
        "meta_arg_of_pericenter": 58.933,
        "meta_mean_anomaly": 302.6584,
        "meta_ephemeris_type": 0,
        "meta_classification_type": "U",
        "meta_norad_cat_id": 31780,
        "meta_element_set_no": 999,
        "meta_rev_at_epoch": 98470,
        "meta_bstar": 0.0004299152,
        "meta_mean_motion_dot": 2.967e-05,
        "meta_mean_motion_ddot": 0,
        "tle_line1": "1 31780U 99025CGF 25344.87398661  .00002967  00000+0  42992-3 0  9992",
        "tle_line2": "2 31780  99.2859 137.2501 0150895  58.9330 302.6584 14.69527931984701"
      },
      "geometry": {
        "type": "Point",
        "coordinates": [
          122.82305623926958,
          57.537632335167636
        ]
      }
    },
    {
      "type": "Feature",
      "properties": {
        "norad_id": 31781,
        "name": "FENGYUN 1C DEB",
        "group": "fengyun-1c-debris",
        "lat": 57.9894706279363,
        "lon": -8.363474017965308,
        "alt_km": 978.8927461861094,
        "timestamp": "2025-12-11T07:02:24.014461+00:00",
        "meta_object_name": "FENGYUN 1C DEB",
        "meta_object_id": "1999-025CGG",
        "meta_epoch": "2025-12-09T06:52:06.193920",
        "meta_mean_motion": 14.12885604,
        "meta_eccentricity": 0.0203697,
        "meta_inclination": 99.4979,
        "meta_ra_of_asc_node": 153.9738,
        "meta_arg_of_pericenter": 283.3787,
        "meta_mean_anomaly": 74.4748,
        "meta_ephemeris_type": 0,
        "meta_classification_type": "U",
        "meta_norad_cat_id": 31781,
        "meta_element_set_no": 999,
        "meta_rev_at_epoch": 68299,
        "meta_bstar": 0.004746,
        "meta_mean_motion_dot": 0.0001072,
        "meta_mean_motion_ddot": 0,
        "tle_line1": "1 31781U 99025CGG 25343.28618280  .00010720  00000+0  47460-2 0  9999",
        "tle_line2": "2 31781  99.4979 153.9738 0203697 283.3787  74.4748 14.12885604682997"
      },
      "geometry": {
        "type": "Point",
        "coordinates": [
          -8.363474017965308,
          57.9894706279363
        ]
      }
    },
    {
      "type": "Feature",
      "properties": {
        "norad_id": 31782,
        "name": "FENGYUN 1C DEB",
        "group": "fengyun-1c-debris",
        "lat": 74.64370969738333,
        "lon": 1.2420126698933327,
        "alt_km": 774.5005066238109,
        "timestamp": "2025-12-11T07:02:24.014471+00:00",
        "meta_object_name": "FENGYUN 1C DEB",
        "meta_object_id": "1999-025CGH",
        "meta_epoch": "2025-12-08T16:46:19.717248",
        "meta_mean_motion": 14.36221911,
        "meta_eccentricity": 0.00796709,
        "meta_inclination": 98.9039,
        "meta_ra_of_asc_node": 143.7533,
        "meta_arg_of_pericenter": 8.9177,
        "meta_mean_anomaly": 5.7329,
        "meta_ephemeris_type": 0,
        "meta_classification_type": "U",
        "meta_norad_cat_id": 31782,
        "meta_element_set_no": 999,
        "meta_rev_at_epoch": 96633,
        "meta_bstar": 0.0006706212,
        "meta_mean_motion_dot": 1.982e-05,
        "meta_mean_motion_ddot": 0,
        "tle_line1": "1 31782U 99025CGH 25342.69883932  .00001982  00000+0  67062-3 0  9993",
        "tle_line2": "2 31782  98.9039 143.7533 0079670   8.9177   5.7329 14.36221911966331"
      },
      "geometry": {
        "type": "Point",
        "coordinates": [
          1.2420126698933327,
          74.64370969738333
        ]
      }
    },
    {
      "type": "Feature",
      "properties": {
        "norad_id": 31783,
        "name": "FENGYUN 1C DEB",
        "group": "fengyun-1c-debris",
        "lat": 35.377037119728115,
        "lon": -179.8109526893164,
        "alt_km": 860.2251257268745,
        "timestamp": "2025-12-11T07:02:24.014481+00:00",
        "meta_object_name": "FENGYUN 1C DEB",
        "meta_object_id": "1999-025CGJ",
        "meta_epoch": "2025-12-09T19:23:45.829248",
        "meta_mean_motion": 14.08820049,
        "meta_eccentricity": 0.01044162,
        "meta_inclination": 98.6045,
        "meta_ra_of_asc_node": 352.5993,
        "meta_arg_of_pericenter": 58.2322,
        "meta_mean_anomaly": 116.4574,
        "meta_ephemeris_type": 0,
        "meta_classification_type": "U",
        "meta_norad_cat_id": 31783,
        "meta_element_set_no": 999,
        "meta_rev_at_epoch": 89179,
        "meta_bstar": 0.00080306341,
        "meta_mean_motion_dot": 1.417e-05,
        "meta_mean_motion_ddot": 0,
        "tle_line1": "1 31783U 99025CGJ 25343.80816932  .00001417  00000+0  80306-3 0  9993",
        "tle_line2": "2 31783  98.6045 352.5993 0104416  58.2322 116.4574 14.08820049891798"
      },
      "geometry": {
        "type": "Point",
        "coordinates": [
          -179.8109526893164,
          35.377037119728115
        ]
      }
    }
  ]
}